{"type":"FeatureCollection","features":[{"type":"Feature","properties":{"name":"Basin Harbor Resort - Lake Champlain","note":"Family-friendly resort (New England)","link":""},"geometry":{"type":"Point","coordinates":[-73.3625461,44.1970284]}},{"type":"Feature","properties":{"name":"Migis Lodge at Sebago Lake","note":"Family-friendly resort (New England)","link":""},"geometry":{"type":"Point","coordinates":[-70.5218156,43.909065]}},{"type":"Feature","properties":{"name":"Fortland","note":"Family-friendly resort (New England)","link":""},"geometry":{"type":"Point","coordinates":[-70.2117299,43.6508796]}},{"type":"Feature","properties":{"name":"Winvian","note":"Family-friendly resort (New England)","link":""},"geometry":{"type":"Point","coordinates":[-73.2019805,41.696865]}},{"type":"Feature","properties":{"name":"Weekapaug Inn","note":"Family-friendly resort (New England)","link":""},"geometry":{"type":"Point","coordinates":[-71.7503392,41.3304958]}},{"type":"Feature","properties":{"name":"Winnetu Oceanside Resort","note":"Family-friendly resort (New England)","link":""},"geometry":{"type":"Point","coordinates":[-70.5150081,41.3520667]}},{"type":"Feature","properties":{"name":"Hidden Pond","note":"Family-friendly resort (New England)","link":""},"geometry":{"type":"Point","coordinates":[-70.43342,43.4095091]}},{"type":"Feature","properties":{"name":"Sterling Ridge Resort","note":"Family-friendly resort (New England)","link":""},"geometry":{"type":"Point","coordinates":[-72.809665,44.6364681]}},{"type":"Feature","properties":{"name":"Owl's Nest Resort","note":"Family-friendly resort (New England)","link":""},"geometry":{"type":"Point","coordinates":[-71.654355,43.870147]}},{"type":"Feature","properties":{"name":"RiverWalk Resort at Loon Mountain","note":"Family-friendly resort (New England)","link":""},"geometry":{"type":"Point","coordinates":[-71.6676788,44.0419006]}},{"type":"Feature","properties":{"name":"Huttopia Southern Maine","note":"Family-friendly resort (New England)","link":""},"geometry":{"type":"Point","coordinates":[-70.7552334,43.3933032]}},{"type":"Feature","properties":{"name":"Tyler Place Family Resort","note":"Family resort","link":"https://www.tylerplace.com"},"geometry":{"type":"Point","coordinates":[-73.1031998,44.9809729]}},{"type":"Feature","properties":{"name":"Smugglers' Notch Resort","note":"Family resort","link":"https://www.smuggs.com"},"geometry":{"type":"Point","coordinates":[-72.7907,44.5883]}},{"type":"Feature","properties":{"name":"Trapp Family Lodge","note":"Family resort","link":"https://www.vontrappresort.com/"},"geometry":{"type":"Point","coordinates":[-72.7079,44.4828]}}]}