{"type": "FeatureCollection", "features": [{"type": "Feature", "properties": {"name": "Huttopia Southern Maine", "note": "Glamping · Southern Maine", "link": "https://americas.huttopia.com/en/site/southern-maine/"}, "geometry": {"type": "Point", "coordinates": [-70.7552334, 43.3933032]}}, {"type": "Feature", "properties": {"name": "Huttopia White Mountains", "note": "Glamping · 57 Pine Knoll Rd, Albany, NH", "link": "https://americas.huttopia.com/en/site/white-mountains/"}, "geometry": {"type": "Point", "coordinates": [-71.207074, 43.957324]}}, {"type": "Feature", "properties": {"name": "Huttopia Berkshires", "note": "Glamping · 312 Kittle Rd, Hancock, MA", "link": "https://americas.huttopia.com/en/site/berkshires/"}, "geometry": {"type": "Point", "coordinates": [-73.3262748, 42.57263]}}, {"type": "Feature", "properties": {"name": "Huttopia Adirondacks", "note": "Glamping · 1571 Lake Ave, Lake Luzerne, NY", "link": "https://americas.huttopia.com/en/site/adirondacks/"}, "geometry": {"type": "Point", "coordinates": [-73.7831007, 43.384066]}}, {"type": "Feature", "properties": {"name": "Huttopia Les Deux Lacs – Laurentides", "note": "Glamping · 4500 Chem. du Lac Caribou, Mont-Blanc, QC", "link": "https://americas.huttopia.com/en/site/les-deux-lacs-laurentides/"}, "geometry": {"type": "Point", "coordinates": [-74.4873135, 46.0337852]}}, {"type": "Feature", "properties": {"name": "Huttopia Sutton", "note": "Glamping · 297 Chemin Maple, Sutton, QC", "link": "https://americas.huttopia.com/en/site/sutton/"}, "geometry": {"type": "Point", "coordinates": [-72.5860131, 45.1056553]}}, {"type": "Feature", "properties": {"name": "Hub North", "note": "Lodge & glamping · 34 Jimtown Rd, Gorham, NH", "link": "https://hubnorthnh.com/", "ltype": "Lodge / glamping"}, "geometry": {"type": "Point", "coordinates": [-71.143, 44.3945]}}]}