{"type":"FeatureCollection","features":[{"type":"Feature","properties":{"name":"Lonesome Lake Hut","ltype":"AMC high hut (self-service in winter)","operator":"AMC","note":"Full-service summer; self-service winter","link":"https://www.outdoors.org/destinations/huts/","approx":false},"geometry":{"type":"Point","coordinates":[-71.70111,44.14]}},{"type":"Feature","properties":{"name":"Greenleaf Hut","ltype":"AMC high hut (full-service)","operator":"AMC","note":"W side of Mt Lafayette, ~4,200 ft","link":"https://www.outdoors.org/destinations/huts/","approx":false},"geometry":{"type":"Point","coordinates":[-71.6706,44.1596]}},{"type":"Feature","properties":{"name":"Galehead Hut","ltype":"AMC high hut (full-service)","operator":"AMC","note":"Most remote high hut, ~3,800 ft","link":"https://www.outdoors.org/destinations/huts/","approx":false},"geometry":{"type":"Point","coordinates":[-71.5709,44.1876]}},{"type":"Feature","properties":{"name":"Zealand Falls Hut","ltype":"AMC high hut (self-service in winter)","operator":"AMC","note":"Full-service summer; self-service winter","link":"https://www.outdoors.org/destinations/huts/","approx":false},"geometry":{"type":"Point","coordinates":[-71.4939,44.1953]}},{"type":"Feature","properties":{"name":"Mizpah Spring Hut","ltype":"AMC high hut (full-service)","operator":"AMC","note":"Southern Presidentials, ~3,800 ft","link":"https://www.outdoors.org/destinations/huts/","approx":false},"geometry":{"type":"Point","coordinates":[-71.3708,44.2192]}},{"type":"Feature","properties":{"name":"Lakes of the Clouds Hut","ltype":"AMC high hut (full-service)","operator":"AMC","note":"Largest hut, below Mt Washington, ~5,000 ft","link":"https://www.outdoors.org/destinations/huts/","approx":false},"geometry":{"type":"Point","coordinates":[-71.31889,44.25861]}},{"type":"Feature","properties":{"name":"Madison Spring Hut","ltype":"AMC high hut (full-service)","operator":"AMC","note":"Northern Presidentials, ~4,800 ft","link":"https://www.outdoors.org/destinations/huts/","approx":false},"geometry":{"type":"Point","coordinates":[-71.2832,44.3278]}},{"type":"Feature","properties":{"name":"Carter Notch Hut","ltype":"AMC high hut (self-service in winter)","operator":"AMC","note":"Full-service summer; self-service winter","link":"https://www.outdoors.org/destinations/huts/","approx":false},"geometry":{"type":"Point","coordinates":[-71.1936,44.2597]}},{"type":"Feature","properties":{"name":"Poplar Stream Falls Hut","ltype":"Maine Huts & Trails hut","operator":"Maine Huts & Trails","note":"Open winter (private rooms). Location approximate.","link":"https://mainehuts.org/hut/poplar-stream-hut/","approx":true},"geometry":{"type":"Point","coordinates":[-70.205,45.1156]}},{"type":"Feature","properties":{"name":"Stratton Brook Hut","ltype":"Maine Huts & Trails hut","operator":"Maine Huts & Trails","note":"Open winter daily; summer weekends. Location approximate.","link":"https://mainehuts.org/hut/stratton-brook-hut/","approx":true},"geometry":{"type":"Point","coordinates":[-70.255,45.118]}},{"type":"Feature","properties":{"name":"Flagstaff Lake Hut","ltype":"Maine Huts & Trails hut","operator":"Maine Huts & Trails","note":"Open winter (private rooms); rentals off-season. Location approximate.","link":"https://mainehuts.org/hut/flagstaff-lake-hut/","approx":true},"geometry":{"type":"Point","coordinates":[-70.22,45.245]}},{"type":"Feature","properties":{"name":"Grand Falls Hut","ltype":"Maine Huts & Trails hut (CLOSED)","operator":"Maine Huts & Trails","note":"Currently CLOSED (batteries/washed-out bridges). Location approximate.","link":"https://mainehuts.org/hut/grand-falls-hut/","approx":true},"geometry":{"type":"Point","coordinates":[-70.155,45.315]}},{"type":"Feature","properties":{"name":"Little Lyford Lodge & Cabins","ltype":"AMC wilderness lodge","operator":"AMC","note":"100-Mile Wilderness; West Branch Pleasant River. Location approximate.","link":"https://www.outdoors.org/destinations/maine/","approx":true,"state":"ME"},"geometry":{"type":"Point","coordinates":[-69.3958,45.4836]}},{"type":"Feature","properties":{"name":"Gorman Chairback Lodge & Cabins","ltype":"AMC wilderness lodge","operator":"AMC","note":"On Long Pond, AMC conservation land. Location approximate.","link":"https://www.outdoors.org/destinations/maine/gorman-chairback/","approx":true,"state":"ME"},"geometry":{"type":"Point","coordinates":[-69.5,45.44]}},{"type":"Feature","properties":{"name":"Medawisla Lodge & Cabins","ltype":"AMC wilderness lodge","operator":"AMC","note":"West end of Second Roach Pond; Katahdin views. Location approximate.","link":"https://www.outdoors.org/destinations/maine/","approx":true,"state":"ME"},"geometry":{"type":"Point","coordinates":[-69.395,45.625]}},{"type":"Feature","properties":{"name":"Highland Center at Crawford Notch","ltype":"AMC lodge","operator":"AMC","note":"Full-service lodge, Crawford Notch (Bretton Woods).","link":"https://www.outdoors.org/destinations/new-hampshire/","approx":false,"state":"NH"},"geometry":{"type":"Point","coordinates":[-71.4109,44.2186]}},{"type":"Feature","properties":{"name":"Joe Dodge Lodge (Pinkham Notch)","ltype":"AMC lodge","operator":"AMC","note":"At Pinkham Notch Visitor Center, base of Mt Washington.","link":"https://www.outdoors.org/destinations/new-hampshire/","approx":false,"state":"NH"},"geometry":{"type":"Point","coordinates":[-71.2531,44.2571]}},{"type":"Feature","properties":{"name":"Cardigan Lodge","ltype":"AMC lodge","operator":"AMC","note":"Base of Mt Cardigan, Alexandria.","link":"https://www.outdoors.org/destinations/new-hampshire/","approx":false,"state":"NH"},"geometry":{"type":"Point","coordinates":[-71.9208,43.6489]}},{"type":"Feature","properties":{"name":"Cold River Camp","ltype":"AMC camp","operator":"AMC","note":"Chatham, near Evans Notch.","link":"https://www.outdoors.org/destinations/","approx":true,"state":"NH"},"geometry":{"type":"Point","coordinates":[-71.006,44.2792]}},{"type":"Feature","properties":{"name":"Three Mile Island Camp","ltype":"AMC camp","operator":"AMC","note":"Island camp on Lake Winnipesaukee (summer).","link":"https://www.outdoors.org/destinations/","approx":true,"state":"NH"},"geometry":{"type":"Point","coordinates":[-71.335,43.657]}},{"type":"Feature","properties":{"name":"Echo Lake Camp","ltype":"AMC camp","operator":"AMC","note":"Mount Desert Island, near Acadia (summer).","link":"https://www.outdoors.org/destinations/maine/","approx":true,"state":"ME"},"geometry":{"type":"Point","coordinates":[-68.336,44.319]}},{"type":"Feature","properties":{"name":"Noble View Outdoor Center","ltype":"AMC outdoor center","operator":"AMC","note":"Russell, MA; cabins & campsites.","link":"https://www.outdoors.org/destinations/","approx":true,"state":"MA"},"geometry":{"type":"Point","coordinates":[-72.839,42.184]}},{"type":"Feature","properties":{"name":"Mohican Outdoor Center","ltype":"AMC outdoor center","operator":"AMC","note":"Kittatinny Ridge on the Appalachian Trail, Blairstown.","link":"https://www.outdoors.org/destinations/","approx":true,"state":"NJ"},"geometry":{"type":"Point","coordinates":[-74.9836,41.0525]}},{"type":"Feature","properties":{"name":"West Branch Pond Camps","ltype":"Sporting camp / lodge","operator":"","note":"Maine sporting camp / wilderness lodge","link":"https://www.ericsturgeon.com/blog/best-camps-cabins-lodges-maine-woods/"},"geometry":{"type":"Point","coordinates":[-69.290875,45.584275]}},{"type":"Feature","properties":{"name":"Nahmakanta Lake Wilderness Camps","ltype":"Sporting camp / lodge","operator":"","note":"Maine sporting camp / wilderness lodge","link":"https://www.ericsturgeon.com/blog/best-camps-cabins-lodges-maine-woods/"},"geometry":{"type":"Point","coordinates":[-69.1613291,45.769665]}},{"type":"Feature","properties":{"name":"Chewonki's Debsconeag Lake Wilderness Camps","ltype":"Sporting camp / lodge","operator":"","note":"Maine sporting camp / wilderness lodge","link":"https://www.ericsturgeon.com/blog/best-camps-cabins-lodges-maine-woods/"},"geometry":{"type":"Point","coordinates":[-69.0853605,45.750831]}},{"type":"Feature","properties":{"name":"Wilsons on Moosehead Lake Cabins & Guide Service","ltype":"Sporting camp / lodge","operator":"","note":"Maine sporting camp / wilderness lodge","link":"https://www.ericsturgeon.com/blog/best-camps-cabins-lodges-maine-woods/"},"geometry":{"type":"Point","coordinates":[-69.713037,45.5844133]}},{"type":"Feature","properties":{"name":"Gray Ghost Camps","ltype":"Sporting camp / lodge","operator":"","note":"Maine sporting camp / wilderness lodge","link":"https://www.ericsturgeon.com/blog/best-camps-cabins-lodges-maine-woods/"},"geometry":{"type":"Point","coordinates":[-69.7892636,45.6732332]}},{"type":"Feature","properties":{"name":"The Birches Resort","ltype":"Sporting camp / lodge","operator":"","note":"Maine sporting camp / wilderness lodge","link":"https://www.ericsturgeon.com/blog/best-camps-cabins-lodges-maine-woods/"},"geometry":{"type":"Point","coordinates":[-69.786701,45.700365]}},{"type":"Feature","properties":{"name":"Moosehead Hills Cabins","ltype":"Sporting camp / lodge","operator":"","note":"Maine sporting camp / wilderness lodge","link":"https://www.ericsturgeon.com/blog/best-camps-cabins-lodges-maine-woods/"},"geometry":{"type":"Point","coordinates":[-69.5770009,45.5014206]}},{"type":"Feature","properties":{"name":"Tomhegan Wilderness Cabins","ltype":"Sporting camp / lodge","operator":"","note":"Maine sporting camp / wilderness lodge","link":"https://www.ericsturgeon.com/blog/best-camps-cabins-lodges-maine-woods/"},"geometry":{"type":"Point","coordinates":[-69.792323,45.747035]}},{"type":"Feature","properties":{"name":"Spencer Pond Camps","ltype":"Sporting camp / lodge","operator":"","note":"Maine sporting camp / wilderness lodge","link":"https://www.ericsturgeon.com/blog/best-camps-cabins-lodges-maine-woods/"},"geometry":{"type":"Point","coordinates":[-69.570751,45.751115]}},{"type":"Feature","properties":{"name":"New England Outdoor Center","ltype":"Sporting camp / lodge","operator":"","note":"Maine sporting camp / wilderness lodge","link":"https://www.ericsturgeon.com/blog/best-camps-cabins-lodges-maine-woods/"},"geometry":{"type":"Point","coordinates":[-68.8180882,45.7263489]}},{"type":"Feature","properties":{"name":"Big Moose Inn, Cabins, & Campground","ltype":"Sporting camp / lodge","operator":"","note":"Maine sporting camp / wilderness lodge","link":"https://www.ericsturgeon.com/blog/best-camps-cabins-lodges-maine-woods/"},"geometry":{"type":"Point","coordinates":[-68.8378905,45.7292284]}},{"type":"Feature","properties":{"name":"Matagamon Wilderness Campground","ltype":"Sporting camp / lodge","operator":"","note":"Maine sporting camp / wilderness lodge","link":"https://www.ericsturgeon.com/blog/best-camps-cabins-lodges-maine-woods/"},"geometry":{"type":"Point","coordinates":[-68.7932968,46.1339916]}},{"type":"Feature","properties":{"name":"Mt. Chase Lodge","ltype":"Sporting camp / lodge","operator":"","note":"Maine sporting camp / wilderness lodge","link":"https://www.ericsturgeon.com/blog/best-camps-cabins-lodges-maine-woods/"},"geometry":{"type":"Point","coordinates":[-68.552925,46.110669]}},{"type":"Feature","properties":{"name":"Shin Pond Village","ltype":"Sporting camp / lodge","operator":"","note":"Maine sporting camp / wilderness lodge","link":"https://www.ericsturgeon.com/blog/best-camps-cabins-lodges-maine-woods/"},"geometry":{"type":"Point","coordinates":[-68.558936,46.106267]}},{"type":"Feature","properties":{"name":"Big Eddy Campground","ltype":"Sporting camp / lodge","operator":"","note":"Maine sporting camp / wilderness lodge","link":"https://www.ericsturgeon.com/blog/best-camps-cabins-lodges-maine-woods/"},"geometry":{"type":"Point","coordinates":[-69.129903,45.8757685]}},{"type":"Feature","properties":{"name":"Bradford Camps","ltype":"Sporting camp / lodge","operator":"","note":"Maine sporting camp / wilderness lodge","link":"https://www.ericsturgeon.com/blog/best-camps-cabins-lodges-maine-woods/"},"geometry":{"type":"Point","coordinates":[-69.0025059,46.3900205]}},{"type":"Feature","properties":{"name":"Libby Camps","ltype":"Sporting camp / lodge","operator":"","note":"Maine sporting camp / wilderness lodge","link":"https://www.ericsturgeon.com/blog/best-camps-cabins-lodges-maine-woods/"},"geometry":{"type":"Point","coordinates":[-68.8428955,46.3083267]}},{"type":"Feature","properties":{"name":"Red River Camps","ltype":"Sporting camp / lodge","operator":"","note":"Maine sporting camp / wilderness lodge","link":"https://www.ericsturgeon.com/blog/best-camps-cabins-lodges-maine-woods/"},"geometry":{"type":"Point","coordinates":[-68.842563,46.956296]}},{"type":"Feature","properties":{"name":"Eagle Lake Sporting Camps","ltype":"Sporting camp / lodge","operator":"","note":"Maine sporting camp / wilderness lodge","link":"https://www.ericsturgeon.com/blog/best-camps-cabins-lodges-maine-woods/"},"geometry":{"type":"Point","coordinates":[-68.473108,47.054705]}},{"type":"Feature","properties":{"name":"Umcolcus Sporting Camps","ltype":"Sporting camp / lodge","operator":"","note":"Maine sporting camp / wilderness lodge","link":"https://www.ericsturgeon.com/blog/best-camps-cabins-lodges-maine-woods/"},"geometry":{"type":"Point","coordinates":[-68.4814103,46.4157652]}},{"type":"Feature","properties":{"name":"Chandler Lake Camps and Lodge","ltype":"Sporting camp / lodge","operator":"","note":"Maine sporting camp / wilderness lodge","link":"https://www.ericsturgeon.com/blog/best-camps-cabins-lodges-maine-woods/"},"geometry":{"type":"Point","coordinates":[-68.7011898,46.4576359]}},{"type":"Feature","properties":{"name":"Rideout's Lodge & Cottages","ltype":"Sporting camp / lodge","operator":"","note":"Maine sporting camp / wilderness lodge","link":"https://www.ericsturgeon.com/blog/best-camps-cabins-lodges-maine-woods/"},"geometry":{"type":"Point","coordinates":[-67.858096,45.706786]}},{"type":"Feature","properties":{"name":"Northern Outdoors","ltype":"Sporting camp / lodge","operator":"","note":"Maine sporting camp / wilderness lodge","link":"https://www.ericsturgeon.com/blog/best-camps-cabins-lodges-maine-woods/"},"geometry":{"type":"Point","coordinates":[-69.9946511,45.2658611]}},{"type":"Feature","properties":{"name":"Sally Mountain Cabins","ltype":"Sporting camp / lodge","operator":"","note":"Maine sporting camp / wilderness lodge","link":"https://www.ericsturgeon.com/blog/best-camps-cabins-lodges-maine-woods/"},"geometry":{"type":"Point","coordinates":[-70.257365,45.621685]}},{"type":"Feature","properties":{"name":"Lake Parlin Lodge & Cabins","ltype":"Sporting camp / lodge","operator":"","note":"Maine sporting camp / wilderness lodge","link":"https://www.ericsturgeon.com/blog/best-camps-cabins-lodges-maine-woods/"},"geometry":{"type":"Point","coordinates":[-70.0930817,45.5197757]}},{"type":"Feature","properties":{"name":"Maine Lakeside Cabins","ltype":"Sporting camp / lodge","operator":"","note":"Maine sporting camp / wilderness lodge","link":"https://www.ericsturgeon.com/blog/best-camps-cabins-lodges-maine-woods/"},"geometry":{"type":"Point","coordinates":[-69.988783,45.2159999]}},{"type":"Feature","properties":{"name":"Grant's Kennebago Camps","ltype":"Sporting camp / lodge","operator":"","note":"Maine sporting camp / wilderness lodge","link":"https://www.ericsturgeon.com/blog/best-camps-cabins-lodges-maine-woods/"},"geometry":{"type":"Point","coordinates":[-70.7492599,45.1028001]}},{"type":"Feature","properties":{"name":"Bald Mountain Camps Resort","ltype":"Sporting camp / lodge","operator":"","note":"Maine sporting camp / wilderness lodge","link":"https://www.ericsturgeon.com/blog/best-camps-cabins-lodges-maine-woods/"},"geometry":{"type":"Point","coordinates":[-70.79068,44.95504]}},{"type":"Feature","properties":{"name":"Tim Pond Camps","ltype":"Sporting camp / lodge","operator":"","note":"Maine sporting camp / wilderness lodge","link":"https://www.ericsturgeon.com/blog/best-camps-cabins-lodges-maine-woods/"},"geometry":{"type":"Point","coordinates":[-70.620116,45.165336]}},{"type":"Feature","properties":{"name":"Bosebuck Mountain Camps","ltype":"Sporting camp / lodge","operator":"","note":"Maine sporting camp / wilderness lodge","link":"https://www.ericsturgeon.com/blog/best-camps-cabins-lodges-maine-woods/"},"geometry":{"type":"Point","coordinates":[-70.9980763,45.0990715]}},{"type":"Feature","properties":{"name":"Lakewood Camps","ltype":"Sporting camp / lodge","operator":"","note":"Maine sporting camp / wilderness lodge","link":"https://www.ericsturgeon.com/blog/best-camps-cabins-lodges-maine-woods/"},"geometry":{"type":"Point","coordinates":[-70.9215103,44.7801695]}}]}