{"type":"FeatureCollection","features":[{"type":"Feature","geometry":{"type":"Polygon","coordinates":[[[-70.467,43.56],[-69.774,43.56],[-69.774,44.072],[-70.467,44.072],[-70.467,43.56]]]},"properties":{"name":"Box 1 \u00b7 Portland\u2013Freeport"}},{"type":"Feature","geometry":{"type":"Polygon","coordinates":[[[-71.983,43.686],[-70.599,43.686],[-70.599,44.703],[-71.983,44.703],[-71.983,43.686]]]},"properties":{"name":"Box 2 \u00b7 Western ME / NH"}},{"type":"Feature","geometry":{"type":"Polygon","coordinates":[[[-73.73,43.666],[-71.718,43.666],[-71.718,45.093],[-73.73,45.093],[-73.73,43.666]]]},"properties":{"name":"Box 3 \u00b7 Northern Vermont"}}]}